NORAD_CAT_ID,OBJECT_NAME,OBJECT_TYPE,EPOCH,MEAN_MOTION,ECCENTRICITY,INCLINATION,RA_OF_ASC_NODE,ARG_OF_PERICENTER,MEAN_ANOMALY,BSTAR,MEAN_MOTION_DOT,MEAN_MOTION_DDOT,TLE_LINE0,TLE_LINE1,TLE_LINE2,SEMIMAJOR_AXIS,PERIOD,APOGEE,PERIGEE,DECAYED
52360.0,STARLINK-3824,PAYLOAD,2023-04-07 23:49:42,15.08848096,0.0001071,53.2153,297.7044,89.9082,270.2033,8.6664e-05,1.092e-05,0.0,0 STARLINK-3824,1 52360U 22045AF  23097.99284782  .00001092  00000-0  86664-4 0  9995,2 52360  53.2153 297.7044 0001071  89.9082 270.2033 15.08848096 54875,6917.856,95.437,540.462,538.98,0.0
52360.0,STARLINK-3824,PAYLOAD,2023-04-08 06:11:15,15.08839489,0.0001262,53.2143,296.5137,73.5781,286.535,2.5713e-05,1.21e-06,0.0,0 STARLINK-3824,1 52360U 22045AF  23098.25781319  .00000121  00000-0  25713-4 0  9993,2 52360  53.2143 296.5137 0001262  73.5781 286.5350 15.08839489 54914,6917.882,95.438,540.62,538.874,0.0
52360.0,STARLINK-3824,PAYLOAD,2023-04-09 12:23:34,15.08837838,0.0001003,53.2161,290.8658,85.9981,274.1126,9.7446e-06,-1.33e-06,0.0,0 STARLINK-3824,1 52360U 22045AF  23099.51637685 -.00000133  00000-0  97446-5 0  9996,2 52360  53.2161 290.8658 0001003  85.9981 274.1126 15.08837838 55103,6917.887,95.438,540.446,539.058,0.0
52360.0,STARLINK-3824,PAYLOAD,2023-04-09 18:45:07,15.08843196,0.0001003,53.2162,289.6768,85.035,275.0757,9.4879e-05,1.223e-05,0.0,0 STARLINK-3824,1 52360U 22045AF  23099.78133473  .00001223  00000-0  94879-4 0  9997,2 52360  53.2162 289.6768 0001003  85.0350 275.0757 15.08843196 55141,6917.871,95.437,540.429,539.042,0.0
52360.0,STARLINK-3824,PAYLOAD,2023-04-10 12:14:22,15.08840853,0.0001212,53.215,286.4059,84.0653,276.0477,0.00019904,2.881e-05,0.0,0 STARLINK-3824,1 52360U 22045AF  23100.50997804  .00002881  00000-0  19904-3 0  9992,2 52360  53.2150 286.4059 0001212  84.0653 276.0477 15.08840853 55252,6917.878,95.438,540.581,538.904,0.0
52360.0,STARLINK-3824,PAYLOAD,2023-04-10 18:35:54,15.08843526,9.75e-05,53.2153,285.2169,87.3236,272.7868,0.00024701,3.646e-05,0.0,0 STARLINK-3824,1 52360U 22045AF  23100.77493628  .00003646  00000-0  24701-3 0  9997,2 52360  53.2153 285.2169 0000975  87.3236 272.7868 15.08843526 55293,6917.87,95.437,540.409,539.06,0.0
52360.0,STARLINK-3824,PAYLOAD,2023-04-11 12:05:09,15.0883852,0.0001206,53.2148,281.9455,83.822,276.291,9.243e-05,1.183e-05,0.0,0 STARLINK-3824,1 52360U 22045AF  23101.50357939  .00001183  00000-0  92430-4 0  9992,2 52360  53.2148 281.9455 0001206  83.8220 276.2910 15.08838520 55408,6917.885,95.438,540.584,538.916,0.0
52360.0,STARLINK-3824,PAYLOAD,2023-04-11 18:26:41,15.08842039,0.0001516,53.214,280.757,77.9096,282.2066,2.0766e-05,4.3e-07,0.0,0 STARLINK-3824,1 52360U 22045AF  23101.76853816  .00000043  00000-0  20766-4 0  9992,2 52360  53.2140 280.7570 0001516  77.9096 282.2066 15.08842039 55447,6917.874,95.437,540.788,538.69,0.0
52360.0,STARLINK-3824,PAYLOAD,2023-04-12 11:55:56,15.08840831,0.0001658,53.2121,277.4842,80.9599,279.158,1.6882e-05,-1.9e-07,0.0,0 STARLINK-3824,1 52360U 22045AF  23102.49717927 -.00000019  00000-0  16882-4 0  9993,2 52360  53.2121 277.4842 0001658  80.9599 279.1580 15.08840831 55556,6917.878,95.438,540.89,538.596,0.0
52360.0,STARLINK-3824,PAYLOAD,2023-04-12 18:17:28,15.08841561,7.49e-05,53.2189,276.2964,81.0597,279.048,0.0001758,2.511e-05,0.0,0 STARLINK-3824,1 52360U 22045AF  23102.76213788  .00002511  00000-0  17580-3 0  9992,2 52360  53.2189 276.2964 0000749  81.0597 279.0480 15.08841561 55595,6917.876,95.437,540.259,539.222,0.0
52360.0,STARLINK-3824,PAYLOAD,2023-04-13 10:11:20,15.08822118,3.77e-05,53.2214,273.3238,314.0823,46.0139,0.00066759,0.00010348,0.0,0 STARLINK-3824,1 52360U 22045AF  23103.42454783  .00010348  00000-0  66759-3 0  9997,2 52360  53.2214 273.3238 0000377 314.0823  46.0139 15.08822118 55695,6917.935,95.439,540.061,539.539,0.0
52360.0,STARLINK-3824,PAYLOAD,2023-04-14 10:02:06,15.08843448,0.0001168,53.2193,268.8646,98.4996,261.6128,5.4204e-05,5.75e-06,0.0,0 STARLINK-3824,1 52360U 22045AF  23104.41813585  .00000575  00000-0  54204-4 0  9990,2 52360  53.2193 268.8646 0001168  98.4996 261.6128 15.08843448 55845,6917.87,95.437,540.543,538.927,0.0
52360.0,STARLINK-3824,PAYLOAD,2023-04-14 17:59:02,15.08841049,4.63e-05,53.2215,267.3755,356.0282,4.0706,5.6071e-05,6.05e-06,0.0,0 STARLINK-3824,1 52360U 22045AF  23104.74933981  .00000605  00000-0  56071-4 0  9997,2 52360  53.2215 267.3755 0000463 356.0282   4.0706 15.08841049 55894,6917.877,95.437,540.062,539.422,0.0
52360.0,STARLINK-3824,PAYLOAD,2023-04-14 19:34:26,15.08840172,0.0001703,53.2186,267.0771,97.9158,262.2028,0.00011597,1.558e-05,0.0,0 STARLINK-3824,1 52360U 22045AF  23104.81557872  .00001558  00000-0  11597-3 0  9997,2 52360  53.2186 267.0771 0001703  97.9158 262.2028 15.08840172 55900,6917.88,95.438,540.923,538.567,0.0
52360.0,STARLINK-3824,PAYLOAD,2023-04-15 03:31:22,15.08829426,0.0001349,53.22,265.5914,86.9723,273.1423,-1.3977e-05,-5.1e-06,0.0,0 STARLINK-3824,1 52360U 22045AF  23105.14679121 -.00000510  00000-0 -13977-4 0  9990,2 52360  53.2200 265.5914 0001349  86.9723 273.1423 15.08829426 55955,6917.913,95.438,540.711,538.844,0.0
52360.0,STARLINK-3824,PAYLOAD,2023-04-15 13:03:41,15.08835409,9.5e-05,53.2179,263.8052,92.1359,267.9742,-8.2731e-06,-4.19e-06,0.0,0 STARLINK-3824,1 52360U 22045AF  23105.54422734 -.00000419  00000-0 -82731-5 0  9993,2 52360  53.2179 263.8052 0000950  92.1359 267.9742 15.08835409 56016,6917.894,95.438,540.417,539.102,0.0
52360.0,STARLINK-3824,PAYLOAD,2023-04-15 19:25:12,15.0884698,9.29e-05,53.2158,262.6149,95.0576,265.0522,0.00012301,1.671e-05,0.0,0 STARLINK-3824,1 52360U 22045AF  23105.80917647  .00001671  00000-0  12301-3 0  9997,2 52360  53.2158 262.6149 0000929  95.0576 265.0522 15.08846980 56051,6917.859,95.437,540.367,539.081,0.0
52360.0,STARLINK-3824,PAYLOAD,2023-04-16 03:22:08,15.08838649,0.0001199,53.2145,261.1303,97.186,262.9268,8.0996e-05,1.001e-05,0.0,0 STARLINK-3824,1 52360U 22045AF  23106.14038185  .00001001  00000-0  80996-4 0  9999,2 52360  53.2145 261.1303 0001199  97.1860 262.9268 15.08838649 56104,6917.885,95.438,540.579,538.92,0.0
52360.0,STARLINK-3824,PAYLOAD,2023-04-16 12:54:27,15.08839937,0.0001158,53.2165,259.3452,91.9627,268.1498,0.00013044,1.789e-05,0.0,0 STARLINK-3824,1 52360U 22045AF  23106.53782211  .00001789  00000-0  13044-3 0  9990,2 52360  53.2165 259.3452 0001158  91.9627 268.1498 15.08839937 56168,6917.881,95.438,540.547,538.944,0.0
52360.0,STARLINK-3824,PAYLOAD,2023-04-16 19:15:59,15.08853526,0.0001273,53.2156,258.1551,87.8197,272.2941,0.00038569,5.858e-05,0.0,0 STARLINK-3824,1 52360U 22045AF  23106.80277742  .00005858  00000-0  38569-3 0  9998,2 52360  53.2156 258.1551 0001273  87.8197 272.2941 15.08853526 56203,6917.839,95.437,540.585,538.823,0.0
52360.0,STARLINK-3824,PAYLOAD,2023-04-17 17:31:24,15.08843931,0.0001303,53.2148,253.9915,81.8702,278.2438,0.00015374,2.16e-05,0.0,0 STARLINK-3824,1 52360U 22045AF  23107.73014218  .00002160  00000-0  15374-3 0  9990,2 52360  53.2148 253.9915 0001303  81.8702 278.2438 15.08843931 56342,6917.868,95.437,540.635,538.832,0.0
52360.0,STARLINK-3824,PAYLOAD,2023-04-18 09:25:16,15.08836374,0.0001441,53.2156,251.0188,81.8996,278.216,2.2615e-05,7.2e-07,0.0,0 STARLINK-3824,1 52360U 22045AF  23108.39254683  .00000072  00000-0  22615-4 0  9992,2 52360  53.2156 251.0188 0001441  81.8996 278.2160 15.08836374 56446,6917.891,95.438,540.753,538.76,0.0
52360.0,STARLINK-3824,PAYLOAD,2023-04-18 15:46:48,15.08840622,0.0001402,53.2155,249.8301,73.6213,286.4933,7.0192e-05,8.29e-06,0.0,0 STARLINK-3824,1 52360U 22045AF  23108.65750647  .00000829  00000-0  70192-4 0  9995,2 52360  53.2155 249.8301 0001402  73.6213 286.4933 15.08840622 56489,6917.878,95.438,540.713,538.774,0.0
52360.0,STARLINK-3824,PAYLOAD,2023-04-18 20:32:56,15.08854649,0.0001166,53.2164,248.9328,104.0591,256.053,0.00017406,2.484e-05,0.0,0 STARLINK-3824,1 52360U 22045AF  23108.85621495  .00002484  00000-0  17406-3 0  9992,2 52360  53.2164 248.9328 0001166 104.0591 256.0530 15.08854649 56517,6917.836,95.437,540.507,538.894,0.0
52360.0,STARLINK-3824,PAYLOAD,2023-04-19 02:54:30,15.08841119,0.0001217,53.2165,247.7473,69.7203,290.392,-2.0523e-05,-6.14e-06,0.0,0 STARLINK-3824,1 52360U 22045AF  23109.12118312 -.00000614  00000-0 -20523-4 0  9992,2 52360  53.2165 247.7473 0001217  69.7203 290.3920 15.08841119 56556,6917.877,95.437,540.584,538.9,0.0
52360.0,STARLINK-3824,PAYLOAD,2023-04-19 15:37:34,15.08859129,0.0001336,53.2162,245.369,68.4402,291.6732,-0.00021656,-3.735e-05,0.0,0 STARLINK-3824,1 52360U 22045AF  23109.65109675 -.00003735  00000-0 -21656-3 0  9996,2 52360  53.2162 245.3690 0001336  68.4402 291.6732 15.08859129 56631,6917.822,95.436,540.611,538.763,0.0
52360.0,STARLINK-3824,PAYLOAD,2023-04-19 20:23:44,15.08860018,0.0001231,53.2155,244.477,84.98,275.1332,0.00041151,6.271e-05,0.0,0 STARLINK-3824,1 52360U 22045AF  23109.84981550  .00006271  00000-0  41151-3 0  9995,2 52360  53.2155 244.4770 0001231  84.9800 275.1332 15.08860018 56666,6917.819,95.436,540.536,538.833,0.0
52360.0,STARLINK-3824,PAYLOAD,2023-04-20 20:14:31,15.08855228,9.22e-05,53.2168,240.0123,89.676,270.4338,0.00020939,3.048e-05,0.0,0 STARLINK-3824,1 52360U 22045AF  23110.84341540  .00003048  00000-0  20939-3 0  9996,2 52360  53.2168 240.0123 0000922  89.6760 270.4338 15.08855228 56815,6917.834,95.437,540.337,539.061,0.0
52360.0,STARLINK-3824,PAYLOAD,2023-04-21 20:05:18,15.08851574,0.0001009,53.2159,235.5529,94.6823,265.4284,0.00012212,1.657e-05,0.0,0 STARLINK-3824,1 52360U 22045AF  23111.83701859  .00001657  00000-0  12212-3 0  9998,2 52360  53.2159 235.5529 0001009  94.6823 265.4284 15.08851574 56967,6917.845,95.437,540.408,539.012,0.0
52360.0,STARLINK-3824,PAYLOAD,2023-04-22 00:51:28,15.08836345,0.0001581,53.2163,234.66,86.9401,273.1772,-0.00010146,-1.902e-05,0.0,0 STARLINK-3824,1 52360U 22045AF  23112.03574658 -.00001902  00000-0 -10146-3 0  9995,2 52360  53.2163 234.6600 0001581  86.9401 273.1772 15.08836345 56993,6917.892,95.438,540.85,538.663,0.0
